{"type": "FeatureCollection", "features": [ {"type": "Feature", "properties": {"norad_id": 64902, "name": "CO3D 2", "group": "resource", "lat": 59.84630752715971, "lon": 57.94730183103723, "alt_km": 499.03981287292663, "timestamp": "2025-12-20T18:51:31.376054+00:00", "meta": {"OBJECT_NAME": "CO3D 2", "OBJECT_ID": "2025-156D", "EPOCH": "2025-12-18T23:56:22.431840", "MEAN_MOTION": 15.20201426, "ECCENTRICITY": 6.127e-05, "INCLINATION": 97.4339, "RA_OF_ASC_NODE": 69.1735, "ARG_OF_PERICENTER": 62.3895, "MEAN_ANOMALY": 297.7402, "EPHEMERIS_TYPE": 0, "CLASSIFICATION_TYPE": "U", "NORAD_CAT_ID": 64902, "ELEMENT_SET_NO": 999, "REV_AT_EPOCH": 2215, "BSTAR": 2.1688322e-05, "MEAN_MOTION_DOT": 4.02e-06, "MEAN_MOTION_DDOT": 0}, "tle": {"line1": "1 64902U 25156D   25352.99748185  .00000402  00000+0  21688-4 0  9992", "line2": "2 64902  97.4339  69.1735 0000612  62.3895 297.7402 15.20201426 22155"}}, "geometry": {"type": "Point", "coordinates": [57.94730183103723, 59.84630752715971]}}, {"type": "Feature", "properties": {"norad_id": 64903, "name": "CO3D 1", "group": "resource", "lat": 59.03043763892448, "lon": 58.36968190793557, "alt_km": 498.9620223136899, "timestamp": "2025-12-20T18:51:31.376065+00:00", "meta": {"OBJECT_NAME": "CO3D 1", "OBJECT_ID": "2025-156E", "EPOCH": "2025-12-20T13:51:25.765056", "MEAN_MOTION": 15.20198168, "ECCENTRICITY": 9.132e-05, "INCLINATION": 97.4344, "RA_OF_ASC_NODE": 70.7313, "ARG_OF_PERICENTER": 77.4671, "MEAN_ANOMALY": 282.6666, "EPHEMERIS_TYPE": 0, "CLASSIFICATION_TYPE": "U", "NORAD_CAT_ID": 64903, "ELEMENT_SET_NO": 999, "REV_AT_EPOCH": 2239, "BSTAR": 0.00019024847, "MEAN_MOTION_DOT": 4.053e-05, "MEAN_MOTION_DDOT": 0}, "tle": {"line1": "1 64903U 25156E   25354.57738154  .00004053  00000+0  19025-3 0  9991", "line2": "2 64903  97.4344  70.7313 0000913  77.4671 282.6666 15.20198168 22394"}}, "geometry": {"type": "Point", "coordinates": [58.36968190793557, 59.03043763892448]}}, {"type": "Feature", "properties": {"norad_id": 66514, "name": "SENTINEL-6B", "group": "resource", "lat": 44.29894797814831, "lon": -60.00493261575356, "alt_km": 1335.1867801906346, "timestamp": "2025-12-20T18:51:31.376074+00:00", "meta": {"OBJECT_NAME": "SENTINEL-6B", "OBJECT_ID": "2025-264A", "EPOCH": "2025-12-12T06:01:21.428544", "MEAN_MOTION": 12.81479578, "ECCENTRICITY": 0.00078482, "INCLINATION": 66.0385, "RA_OF_ASC_NODE": 163.4531, "ARG_OF_PERICENTER": 270.1376, "MEAN_ANOMALY": 89.874, "EPHEMERIS_TYPE": 0, "CLASSIFICATION_TYPE": "U", "NORAD_CAT_ID": 66514, "ELEMENT_SET_NO": 999, "REV_AT_EPOCH": 322, "BSTAR": 0.00018573353, "MEAN_MOTION_DOT": -1.8e-07, "MEAN_MOTION_DDOT": 0}, "tle": {"line1": "1 66514U 25264A   25346.25094246 -.00000018  00000+0  18573-3 0  9999", "line2": "2 66514  66.0385 163.4531 0007848 270.1376  89.8740 12.81479578  3223"}}, "geometry": {"type": "Point", "coordinates": [-60.00493261575356, 44.29894797814831]}}]}